[{"OBJECT_NAME":"AMOS-17","OBJECT_ID":"2019-050A","EPOCH":"2026-03-05T17:48:08.995392","MEAN_MOTION":1.00271937,"ECCENTRICITY":0.0001437,"INCLINATION":0.045,"RA_OF_ASC_NODE":291.1442,"ARG_OF_PERICENTER":56.4653,"MEAN_ANOMALY":99.8642,"EPHEMERIS_TYPE":0,"CLASSIFICATION_TYPE":"U","NORAD_CAT_ID":44479,"ELEMENT_SET_NO":999,"REV_AT_EPOCH":2414,"BSTAR":0,"MEAN_MOTION_DOT":1.02e-6,"MEAN_MOTION_DDOT":0}]
